[{"OBJECT_NAME":"SWARM B","OBJECT_ID":"2013-067A","EPOCH":"2026-03-09T22:20:48.706656","MEAN_MOTION":15.27862638,"ECCENTRICITY":0.00036996,"INCLINATION":87.749,"RA_OF_ASC_NODE":12.4162,"ARG_OF_PERICENTER":86.3179,"MEAN_ANOMALY":273.8493,"EPHEMERIS_TYPE":0,"CLASSIFICATION_TYPE":"U","NORAD_CAT_ID":39451,"ELEMENT_SET_NO":999,"REV_AT_EPOCH":66808,"BSTAR":0.00020534236,"MEAN_MOTION_DOT":5.616e-5,"MEAN_MOTION_DDOT":0},{"OBJECT_NAME":"STARLINK-31310","OBJECT_ID":"2024-041U","EPOCH":"2026-03-09T00:24:35.411328","MEAN_MOTION":15.27495203,"ECCENTRICITY":0.00031514,"INCLINATION":43.0031,"RA_OF_ASC_NODE":314.9263,"ARG_OF_PERICENTER":243.6579,"MEAN_ANOMALY":116.395,"EPHEMERIS_TYPE":0,"CLASSIFICATION_TYPE":"U","NORAD_CAT_ID":59092,"ELEMENT_SET_NO":999,"REV_AT_EPOCH":11416,"BSTAR":0.00067356117,"MEAN_MOTION_DOT":0.00018272,"MEAN_MOTION_DDOT":0}]
